CCSDS_OMM_VERS = 2.0
CREATION_DATE  = 
ORIGINATOR     = 

OBJECT_NAME    = UNKNOWN
OBJECT_ID      = 
CENTER_NAME    = EARTH
REF_FRAME      = TEME
TIME_SYSTEM    = UTC
MEAN_ELEMENT_THEORY = SGP/SGP4

EPOCH          = 2025-12-18T18:40:43.167360
MEAN_MOTION    = 13.31442601
ECCENTRICITY   = .0245083
INCLINATION    = 67.2967
RA_OF_ASC_NODE = 267.9074
ARG_OF_PERICENTER = 79.8512
MEAN_ANOMALY   = 314.2725

EPHEMERIS_TYPE = 0
CLASSIFICATION_TYPE = U
NORAD_CAT_ID   = 81599
ELEMENT_SET_NO = 999
REV_AT_EPOCH   = 58588
BSTAR          = .73912E-3
MEAN_MOTION_DOT = .356E-5
MEAN_MOTION_DDOT = 0

CCSDS_OMM_VERS = 2.0
CREATION_DATE  = 
ORIGINATOR     = 

OBJECT_NAME    = UNKNOWN
OBJECT_ID      = 
CENTER_NAME    = EARTH
REF_FRAME      = TEME
TIME_SYSTEM    = UTC
MEAN_ELEMENT_THEORY = SGP/SGP4

EPOCH          = 2025-12-09T09:20:13.255584
MEAN_MOTION    = 12.81482375
ECCENTRICITY   = .0172851
INCLINATION    = 56.4355
RA_OF_ASC_NODE = 223.0716
ARG_OF_PERICENTER = 126.9912
MEAN_ANOMALY   = 234.6975

EPHEMERIS_TYPE = 0
CLASSIFICATION_TYPE = U
NORAD_CAT_ID   = 81605
ELEMENT_SET_NO = 999
REV_AT_EPOCH   = 18577
BSTAR          = .17371E-1
MEAN_MOTION_DOT = .4201E-4
MEAN_MOTION_DDOT = 0

CCSDS_OMM_VERS = 2.0
CREATION_DATE  = 
ORIGINATOR     = 

OBJECT_NAME    = UNKNOWN
OBJECT_ID      = 
CENTER_NAME    = EARTH
REF_FRAME      = TEME
TIME_SYSTEM    = UTC
MEAN_ELEMENT_THEORY = SGP/SGP4

EPOCH          = 2025-12-17T22:34:43.285728
MEAN_MOTION    = 12.37148733
ECCENTRICITY   = .0333989
INCLINATION    = 101.8227
RA_OF_ASC_NODE = 347.6405
ARG_OF_PERICENTER = 139.7083
MEAN_ANOMALY   = 222.9247

EPHEMERIS_TYPE = 0
CLASSIFICATION_TYPE = U
NORAD_CAT_ID   = 81614
ELEMENT_SET_NO = 999
REV_AT_EPOCH   = 53862
BSTAR          = .27667E-1
MEAN_MOTION_DOT = .4272E-4
MEAN_MOTION_DDOT = 0

CCSDS_OMM_VERS = 2.0
CREATION_DATE  = 
ORIGINATOR     = 

OBJECT_NAME    = UNKNOWN
OBJECT_ID      = 
CENTER_NAME    = EARTH
REF_FRAME      = TEME
TIME_SYSTEM    = UTC
MEAN_ELEMENT_THEORY = SGP/SGP4

EPOCH          = 2025-12-22T13:19:35.207904
MEAN_MOTION    = 13.34121008
ECCENTRICITY   = .0770827
INCLINATION    = 65.8282
RA_OF_ASC_NODE = 39.2553
ARG_OF_PERICENTER = 132.0547
MEAN_ANOMALY   = 234.8768

EPHEMERIS_TYPE = 0
CLASSIFICATION_TYPE = U
NORAD_CAT_ID   = 81615
ELEMENT_SET_NO = 999
REV_AT_EPOCH   = 58417
BSTAR          = .44115E-3
MEAN_MOTION_DOT = .1168E-4
MEAN_MOTION_DDOT = 0

CCSDS_OMM_VERS = 2.0
CREATION_DATE  = 
ORIGINATOR     = 

OBJECT_NAME    = UNKNOWN
OBJECT_ID      = 
CENTER_NAME    = EARTH
REF_FRAME      = TEME
TIME_SYSTEM    = UTC
MEAN_ELEMENT_THEORY = SGP/SGP4

EPOCH          = 2025-12-20T10:13:39.200160
MEAN_MOTION    = 12.57540267
ECCENTRICITY   = .0040193
INCLINATION    = 101.2584
RA_OF_ASC_NODE = 168.5418
ARG_OF_PERICENTER = 227.4280
MEAN_ANOMALY   = 132.3402

EPHEMERIS_TYPE = 0
CLASSIFICATION_TYPE = U
NORAD_CAT_ID   = 81617
ELEMENT_SET_NO = 999
REV_AT_EPOCH   = 55407
BSTAR          = .21401E-2
MEAN_MOTION_DOT = .318E-5
MEAN_MOTION_DDOT = 0

CCSDS_OMM_VERS = 2.0
CREATION_DATE  = 
ORIGINATOR     = 

OBJECT_NAME    = UNKNOWN
OBJECT_ID      = 
CENTER_NAME    = EARTH
REF_FRAME      = TEME
TIME_SYSTEM    = UTC
MEAN_ELEMENT_THEORY = SGP/SGP4

EPOCH          = 2025-12-20T19:09:49.176576
MEAN_MOTION    = 14.71055036
ECCENTRICITY   = .0071346
INCLINATION    = 66.9768
RA_OF_ASC_NODE = 144.6673
ARG_OF_PERICENTER = 230.3305
MEAN_ANOMALY   = 129.1510

EPHEMERIS_TYPE = 0
CLASSIFICATION_TYPE = U
NORAD_CAT_ID   = 81624
ELEMENT_SET_NO = 999
REV_AT_EPOCH   = 64089
BSTAR          = .83184E-3
MEAN_MOTION_DOT = .5219E-4
MEAN_MOTION_DDOT = 0

CCSDS_OMM_VERS = 2.0
CREATION_DATE  = 
ORIGINATOR     = 

OBJECT_NAME    = UNKNOWN
OBJECT_ID      = 
CENTER_NAME    = EARTH
REF_FRAME      = TEME
TIME_SYSTEM    = UTC
MEAN_ELEMENT_THEORY = SGP/SGP4

EPOCH          = 2025-12-19T11:03:37.564416
MEAN_MOTION    = 12.57227597
ECCENTRICITY   = .0976015
INCLINATION    = 65.8256
RA_OF_ASC_NODE = 118.1705
ARG_OF_PERICENTER = 74.9649
MEAN_ANOMALY   = 295.7157

EPHEMERIS_TYPE = 0
CLASSIFICATION_TYPE = U
NORAD_CAT_ID   = 81640
ELEMENT_SET_NO = 999
REV_AT_EPOCH   = 51092
BSTAR          = .10453E-3
MEAN_MOTION_DOT = .54E-6
MEAN_MOTION_DDOT = 0

CCSDS_OMM_VERS = 2.0
CREATION_DATE  = 
ORIGINATOR     = 

OBJECT_NAME    = UNKNOWN
OBJECT_ID      = 
CENTER_NAME    = EARTH
REF_FRAME      = TEME
TIME_SYSTEM    = UTC
MEAN_ELEMENT_THEORY = SGP/SGP4

EPOCH          = 2025-12-21T04:18:46.291680
MEAN_MOTION    = 13.44387754
ECCENTRICITY   = .0368004
INCLINATION    = 102.1470
RA_OF_ASC_NODE = 245.4139
ARG_OF_PERICENTER = 340.8161
MEAN_ANOMALY   = 173.3701

EPHEMERIS_TYPE = 0
CLASSIFICATION_TYPE = U
NORAD_CAT_ID   = 81652
ELEMENT_SET_NO = 999
REV_AT_EPOCH   = 57978
BSTAR          = .77035E-3
MEAN_MOTION_DOT = .611E-5
MEAN_MOTION_DDOT = 0

CCSDS_OMM_VERS = 2.0
CREATION_DATE  = 
ORIGINATOR     = 

OBJECT_NAME    = UNKNOWN
OBJECT_ID      = 
CENTER_NAME    = EARTH
REF_FRAME      = TEME
TIME_SYSTEM    = UTC
MEAN_ELEMENT_THEORY = SGP/SGP4

EPOCH          = 2025-12-22T07:57:10.172736
MEAN_MOTION    = 14.48016648
ECCENTRICITY   = .0017748
INCLINATION    = 74.0395
RA_OF_ASC_NODE = 18.6110
ARG_OF_PERICENTER = 305.5946
MEAN_ANOMALY   = 54.3559

EPHEMERIS_TYPE = 0
CLASSIFICATION_TYPE = U
NORAD_CAT_ID   = 81667
ELEMENT_SET_NO = 999
REV_AT_EPOCH   = 45803
BSTAR          = .68459E-3
MEAN_MOTION_DOT = .2522E-4
MEAN_MOTION_DDOT = 0

CCSDS_OMM_VERS = 2.0
CREATION_DATE  = 
ORIGINATOR     = 

OBJECT_NAME    = UNKNOWN
OBJECT_ID      = 
CENTER_NAME    = EARTH
REF_FRAME      = TEME
TIME_SYSTEM    = UTC
MEAN_ELEMENT_THEORY = SGP/SGP4

EPOCH          = 2025-12-21T17:42:20.390400
MEAN_MOTION    = 14.09934139
ECCENTRICITY   = .0031238
INCLINATION    = 66.8232
RA_OF_ASC_NODE = 341.6139
ARG_OF_PERICENTER = 226.0718
MEAN_ANOMALY   = 316.1419

EPHEMERIS_TYPE = 0
CLASSIFICATION_TYPE = U
NORAD_CAT_ID   = 81674
ELEMENT_SET_NO = 999
REV_AT_EPOCH   = 61498
BSTAR          = .6422E-3
MEAN_MOTION_DOT = .1058E-4
MEAN_MOTION_DDOT = 0

CCSDS_OMM_VERS = 2.0
CREATION_DATE  = 
ORIGINATOR     = 

OBJECT_NAME    = UNKNOWN
OBJECT_ID      = 
CENTER_NAME    = EARTH
REF_FRAME      = TEME
TIME_SYSTEM    = UTC
MEAN_ELEMENT_THEORY = SGP/SGP4

EPOCH          = 2025-12-21T19:25:53.893920
MEAN_MOTION    = 14.57439890
ECCENTRICITY   = .0022443
INCLINATION    = 81.2157
RA_OF_ASC_NODE = 285.8073
ARG_OF_PERICENTER = 272.8734
MEAN_ANOMALY   = 86.9894

EPHEMERIS_TYPE = 0
CLASSIFICATION_TYPE = U
NORAD_CAT_ID   = 81683
ELEMENT_SET_NO = 999
REV_AT_EPOCH   = 63718
BSTAR          = .52379E-3
MEAN_MOTION_DOT = .2399E-4
MEAN_MOTION_DDOT = 0

CCSDS_OMM_VERS = 2.0
CREATION_DATE  = 
ORIGINATOR     = 

OBJECT_NAME    = UNKNOWN
OBJECT_ID      = 
CENTER_NAME    = EARTH
REF_FRAME      = TEME
TIME_SYSTEM    = UTC
MEAN_ELEMENT_THEORY = SGP/SGP4

EPOCH          = 2025-12-20T14:51:27.181440
MEAN_MOTION    = 12.25912698
ECCENTRICITY   = .0368858
INCLINATION    = 101.0911
RA_OF_ASC_NODE = 55.1849
ARG_OF_PERICENTER = 70.1571
MEAN_ANOMALY   = 293.8851

EPHEMERIS_TYPE = 0
CLASSIFICATION_TYPE = U
NORAD_CAT_ID   = 81693
ELEMENT_SET_NO = 999
REV_AT_EPOCH   = 96873
BSTAR          = -.11942E-2
MEAN_MOTION_DOT = -.202E-5
MEAN_MOTION_DDOT = 0

