UNKNOWN                 
1 81599U          25352.77827740  .00000356  00000+0  73912-3 0  9999
2 81599  67.2967 267.9074 0245083  79.8512 314.2725 13.31442601585883
UNKNOWN                 
1 81605U          25343.38904231  .00004201  00000+0  17371-1 0  9993
2 81605  56.4355 223.0716 0172851 126.9912 234.6975 12.81482375185770
UNKNOWN                 
1 81614U          25351.94077877  .00004272  00000+0  27667-1 0  9998
2 81614 101.8227 347.6405 0333989 139.7083 222.9247 12.37148733538629
UNKNOWN                 
1 81615U          25356.55526861  .00001168  00000+0  44115-3 0  9993
2 81615  65.8282  39.2553 0770827 132.0547 234.8768 13.34121008584170
UNKNOWN                 
1 81617U          25354.42614815  .00000318  00000+0  21401-2 0  9994
2 81617 101.2584 168.5418 0040193 227.4280 132.3402 12.57540267554076
UNKNOWN                 
1 81624U          25354.79848584  .00005219  00000+0  83184-3 0  9996
2 81624  66.9768 144.6673 0071346 230.3305 129.1510 14.71055036640891
UNKNOWN                 
1 81640U          25353.46085144  .00000054  00000+0  10453-3 0  9993
2 81640  65.8256 118.1705 0976015  74.9649 295.7157 12.57227597510923
UNKNOWN                 
1 81652U          25355.17970245  .00000611  00000+0  77035-3 0  9999
2 81652 102.1470 245.4139 0368004 340.8161 173.3701 13.44387754579785
UNKNOWN                 
1 81667U          25356.33136774  .00002522  00000+0  68459-3 0  9998
2 81667  74.0395  18.6110 0017748 305.5946  54.3559 14.48016648458037
UNKNOWN                 
1 81674U          25355.73773600  .00001058  00000+0  64220-3 0  9999
2 81674  66.8232 341.6139 0031238 226.0718 316.1419 14.09934139614981
UNKNOWN                 
1 81683U          25355.80965155  .00002399  00000+0  52379-3 0  9996
2 81683  81.2157 285.8073 0022443 272.8734  86.9894 14.57439890637182
UNKNOWN                 
1 81693U          25354.61906460 -.00000202  00000+0 -11942-2 0  9992
2 81693 101.0911  55.1849 0368858  70.1571 293.8851 12.25912698968737
